OBJECT_NAME,OBJECT_ID,EPOCH,MEAN_MOTION,ECCENTRICITY,INCLINATION,RA_OF_ASC_NODE,ARG_OF_PERICENTER,MEAN_ANOMALY,EPHEMERIS_TYPE,CLASSIFICATION_TYPE,NORAD_CAT_ID,ELEMENT_SET_NO,REV_AT_EPOCH,BSTAR,MEAN_MOTION_DOT,MEAN_MOTION_DDOT
GSAT0216 (GALILEO 20),2017-079B,2026-06-26T02:31:50.584512,1.70474721,.00046591,55.0717,221.2611,276.6161,83.4222,0,U,43056,999,5315,0,.62E-6,0
GSAT0217 (GALILEO 21),2017-079C,2026-06-26T07:49:47.498016,1.70474719,.0003945,55.0685,221.2528,287.8828,72.1663,0,U,43057,999,5314,0,.63E-6,0
GSAT0218 (GALILEO 22),2017-079D,2026-06-27T17:16:03.903168,1.70474400,.00061633,55.0695,221.2120,274.4572,85.5687,0,U,43058,999,5319,0,.68E-6,0
BEIDOU-3 M7 (C27),2018-003A,2026-06-27T13:15:59.751360,1.86228245,.00049162,54.3179,301.9528,95.4904,264.5619,0,U,43107,999,5754,0,-.94E-6,0
BEIDOU-3 M8 (C28),2018-003B,2026-06-26T10:09:48.504384,1.86231146,.0002414,54.3115,301.9738,260.4208,99.5455,0,U,43108,999,5753,0,-.102E-5,0
BEIDOU-3 M4 (C22),2018-018A,2026-06-27T22:34:16.027392,1.86231294,.0007503,56.6604,62.7936,22.8069,337.2771,0,U,43207,999,5694,0,-.7E-6,0
BEIDOU-3 M3 (C21),2018-018B,2026-06-28T00:10:00.246720,1.86231296,.00082036,56.6603,62.7953,342.7944,17.2289,0,U,43208,999,5694,0,-.7E-6,0
BEIDOU-3 M9 (C29),2018-029A,2026-06-27T16:30:31.112640,1.86228615,.00009375,54.1834,299.5811,166.7829,193.2191,0,U,43245,999,5609,0,-.9E-6,0
BEIDOU-3 M10 (C30),2018-029B,2026-06-28T03:49:08.332608,1.86229480,.00036217,54.1804,299.5911,39.5768,320.4508,0,U,43246,999,5608,0,-.86E-6,0
IRNSS-1I,2018-035A,2026-06-24T19:11:38.629824,1.00275960,.00176215,28.7725,74.0767,182.3144,359.3363,0,U,43286,999,3015,0,.66E-6,0
COSMOS 2527 (756),2018-053A,2026-06-27T21:03:54.996768,2.13102103,.0006813,65.5836,73.5506,236.4648,123.5150,0,U,43508,999,6250,0,-.45E-6,0
BEIDOU-2 IGSO-7 (C16),2018-057A,2026-06-26T12:08:29.940576,1.00249004,.0104768,55.1970,162.9757,237.9790,164.9478,0,U,43539,999,2922,0,-.28E-6,0
GSAT0221 (GALILEO 25),2018-060A,2026-06-27T00:53:07.768608,1.70476269,.00025202,57.1661,341.5145,298.2100,61.7583,0,U,43564,999,4933,0,-.94E-6,0
GSAT0222 (GALILEO 26),2018-060B,2026-06-28T10:18:48.741984,1.70476044,.00022577,57.1685,341.4807,240.6256,119.3439,0,U,43565,999,4940,0,-.91E-6,0
GSAT0219 (GALILEO 23),2018-060C,2026-06-26T07:18:09.641664,1.70476218,.0001792,57.1694,341.5394,314.3403,45.6398,0,U,43566,999,4934,0,-.96E-6,0
GSAT0220 (GALILEO 24),2018-060D,2026-06-27T16:45:45.181440,1.70476279,.00019211,57.1676,341.5017,305.3524,54.6226,0,U,43567,999,4935,0,-.93E-6,0
BEIDOU-3 M5 (C23),2018-062A,2026-06-27T20:18:31.178016,1.86228745,.00057682,54.0860,181.9416,291.0967,68.8660,0,U,43581,999,5383,0,.83E-6,0
BEIDOU-3 M6 (C24),2018-062B,2026-06-27T17:01:59.570400,1.86227843,.00051051,54.0860,181.9355,8.8787,351.1552,0,U,43582,999,5383,0,.85E-6,0
BEIDOU-3 M12 (C26),2018-067A,2026-06-26T00:53:39.683040,1.86227758,.0007828,54.1810,180.7397,29.5974,330.4748,0,U,43602,999,5328,0,.98E-6,0
BEIDOU-3 M11 (C25),2018-067B,2026-06-28T07:41:03.689376,1.86227250,.00045873,54.1783,180.6260,12.7295,347.3012,0,U,43603,999,5335,0,.78E-6,0
BEIDOU-3 M13 (C32),2018-072A,2026-06-28T06:35:58.003296,1.86231424,.00069017,56.6346,62.2932,331.0537,28.9612,0,U,43622,999,5286,0,-.67E-6,0
BEIDOU-3 M14 (C33),2018-072B,2026-06-28T03:22:11.359200,1.86231431,.00059612,56.6363,62.2922,4.6326,355.4253,0,U,43623,999,5285,0,-.69E-6,0
BEIDOU-3 M16 (C35),2018-078A,2026-06-27T18:12:23.890176,1.86232482,.0006999,54.0796,299.6154,40.7776,319.2743,0,U,43647,999,5235,0,-.89E-6,0
BEIDOU-3 M15 (C34),2018-078B,2026-06-27T21:18:33.618240,1.86232604,.00039363,54.0751,299.6113,58.0091,302.0294,0,U,43648,999,5237,0,-.88E-6,0
BEIDOU-3 G1 (C59),2018-085A,2026-06-28T14:31:47.919072,1.00271145,.0008579,2.8971,97.0678,352.1876,205.3170,0,U,43683,999,2817,0,-.101E-5,0
COSMOS 2529 (757),2018-086A,2026-06-26T02:19:47.979840,2.13102017,.0012114,64.2953,192.2935,256.4695,103.4491,0,U,43687,999,5947,0,.106E-5,0
BEIDOU-3 M17 (C36),2018-093A,2026-06-26T12:03:21.339648,1.86228594,.0010136,54.1697,181.9800,292.4713,110.1482,0,U,43706,999,5171,0,.95E-6,0
BEIDOU-3 M18 (C37),2018-093B,2026-06-26T07:15:06.898752,1.86226640,.0008135,54.1702,181.9788,321.1510,38.8204,0,U,43707,999,5170,0,.97E-6,0
GPS BIII-1  (PRN 04),2018-109A,2026-06-27T23:59:08.755296,2.00562369,.00384757,55.6882,91.7602,197.6964,172.9687,0,U,43873,999,5529,0,-.54E-6,0
BEIDOU-3 IGSO-1 (C38),2019-023A,2026-06-24T12:59:44.316960,1.00289953,.00257477,58.7053,37.5725,224.9564,323.4804,0,U,44204,999,728,0,-.226E-5,0
BEIDOU-2 G8 (C01),2019-027A,2026-06-27T23:27:31.406112,1.00268598,.00098358,1.6855,74.5233,285.1014,52.8069,0,U,44231,999,2618,0,-.238E-5,0
